     2              NAVIGATION DATA                         RINEX VERSION / TYPE
CCRINEXN V1.6.0 UX  CDDIS               16-APR-24 01:53     PGM / RUN BY / DATE 
IGS BROADCAST EPHEMERIS FILE                                COMMENT             
    0.3446D-07  0.1490D-07 -0.1788D-06 -0.5960D-07          ION ALPHA           
    0.1372D+06  0.3277D+05 -0.2621D+06  0.3277D+06          ION BETA            
   -0.465661287308D-08-0.168753899743D-13   405504     2310 DELTA-UTC: A0,A1,T,W
    18                                                      LEAP SECONDS        
                                                            END OF HEADER       
 2 24  4 16  0  0  0.0-0.452697277069D-03 0.648014975013D-11 0.000000000000D+00
    0.180000000000D+02 0.295000000000D+02 0.449697303126D-08 0.182680840385D+00
    0.145472586155D-05 0.160383882467D-01 0.559911131859D-05 0.515370581627D+04
    0.172800000000D+06-0.132247805595D-06 0.268997353976D+01-0.171363353729D-06
    0.967610649096D+00 0.278937500000D+03-0.120364968262D+01-0.839463538455D-08
    0.539308178636D-10 0.100000000000D+01 0.231000000000D+04 0.000000000000D+00
    0.200000000000D+01 0.000000000000D+00-0.176951289177D-07 0.180000000000D+02
    0.165618000000D+06 0.400000000000D+01 0.000000000000D+00 0.000000000000D+00
 4 24  4 16  0  0  0.0 0.339683610946D-03 0.875388650456D-11 0.000000000000D+00
    0.233000000000D+03-0.603437500000D+02 0.433053752713D-08-0.389997642544D+00
   -0.333786010742D-05 0.279559416231D-02 0.829063355923D-05 0.515376340866D+04
    0.172800000000D+06 0.614672899246D-07-0.138060795321D+01 0.745058059692D-08
    0.964331863470D+00 0.221187500000D+03-0.294610483586D+01-0.791640117846D-08
   -0.196436753808D-10 0.100000000000D+01 0.231000000000D+04 0.000000000000D+00
    0.200000000000D+01 0.000000000000D+00-0.465661287308D-08 0.233000000000D+03
    0.166158000000D+06 0.400000000000D+01 0.000000000000D+00 0.000000000000D+00
 5 24  4 16  0  0  0.0-0.169277656823D-03-0.136424205266D-11 0.000000000000D+00
    0.280000000000D+02-0.536875000000D+02 0.449161566525D-08 0.289413925880D+00
   -0.250525772572D-05 0.576040626038D-02 0.443868339062D-05 0.515359672165D+04
    0.172800000000D+06-0.428408384323D-07-0.251056728204D+01 0.447034835815D-07
    0.970843499094D+00 0.299250000000D+03 0.123365853874D+01-0.827927343640D-08
   -0.553594488004D-10 0.100000000000D+01 0.231000000000D+04 0.000000000000D+00
    0.200000000000D+01 0.000000000000D+00-0.107102096081D-07 0.280000000000D+02
    0.165618000000D+06 0.400000000000D+01 0.000000000000D+00 0.000000000000D+00
 6 24  4 16  0  0  0.0 0.319992192090D-03-0.180762071977D-10 0.000000000000D+00
    0.730000000000D+02 0.351875000000D+02 0.397016537332D-08-0.205944710374D+01
    0.187382102013D-05 0.307731225621D-02 0.509433448315D-05 0.515360318375D+04
    0.172800000000D+06-0.372529029846D-07 0.278731877273D+01-0.186264514923D-08
    0.989941678107D+00 0.299968750000D+03-0.706494952648D+00-0.785889878325D-08
    0.992898501065D-10 0.100000000000D+01 0.231000000000D+04 0.000000000000D+00
    0.280000000000D+01 0.000000000000D+00 0.419095158577D-08 0.730000000000D+02
    0.167988000000D+06 0.400000000000D+01 0.000000000000D+00 0.000000000000D+00
 9 24  4 16  0  0  0.0 0.161821953952D-03 0.136424205266D-10 0.000000000000D+00
    0.120000000000D+03-0.582812500000D+02 0.450840207876D-08 0.367889051690D+00
   -0.316277146339D-05 0.267065723892D-02 0.826269388199D-05 0.515368770027D+04
    0.172800000000D+06-0.167638063431D-07-0.143983777434D+01-0.633299350738D-07
    0.957876368790D+00 0.218437500000D+03 0.199722448869D+01-0.799926177279D-08
    0.128576784311D-10 0.100000000000D+01 0.231000000000D+04 0.000000000000D+00
    0.200000000000D+01 0.000000000000D+00 0.931322574616D-09 0.120000000000D+03
    0.169518000000D+06 0.400000000000D+01 0.000000000000D+00 0.000000000000D+00
10 24  4 16  0  0  0.0-0.936631113291D-05-0.454747350886D-11 0.000000000000D+00
    0.870000000000D+02-0.523437500000D+02 0.414124392800D-08 0.190072294691D+01
   -0.280886888504D-05 0.929141847882D-02 0.461004674435D-05 0.515368889046D+04
    0.172800000000D+06-0.186264514923D-06-0.246235066370D+01-0.558793544769D-07
    0.983518749446D+00 0.307156250000D+03-0.236641817950D+01-0.796247452617D-08
   -0.821462788651D-11 0.100000000000D+01 0.231000000000D+04 0.000000000000D+00
    0.200000000000D+01 0.000000000000D+00 0.232830643654D-08 0.870000000000D+02
    0.166908000000D+06 0.400000000000D+01 0.000000000000D+00 0.000000000000D+00
11 24  4 16  0  0  0.0-0.637475866824D-03-0.104591890704D-10 0.000000000000D+00
    0.156000000000D+03 0.335625000000D+02 0.449090134978D-08-0.827071371528D+00
    0.178627669811D-05 0.123659695964D-02 0.450015068054D-05 0.515369617844D+04
    0.172800000000D+06-0.186264514923D-08 0.282129049544D+01-0.149011611938D-07
    0.966439015561D+00 0.297250000000D+03-0.252216768552D+01-0.816712590786D-08
    0.110361739867D-09 0.100000000000D+01 0.231000000000D+04 0.000000000000D+00
    0.200000000000D+01 0.000000000000D+00-0.838190317154D-08 0.668000000000D+03
    0.165618000000D+06 0.400000000000D+01 0.000000000000D+00 0.000000000000D+00
12 24  4 16  0  0  0.0-0.496925786138D-03-0.341060513165D-11 0.000000000000D+00
    0.760000000000D+02 0.343125000000D+02 0.442161274935D-08 0.262642329291D+01
    0.176019966602D-05 0.890322576743D-02 0.693090260029D-05 0.515366674423D+04
    0.172800000000D+06 0.100582838059D-06 0.747750180214D+00-0.316649675369D-07
    0.962875939602D+00 0.244562500000D+03 0.143839994384D+01-0.774496546604D-08
   -0.172864343351D-09 0.100000000000D+01 0.231000000000D+04 0.000000000000D+00
    0.200000000000D+01 0.000000000000D+00-0.125728547573D-07 0.760000000000D+02
    0.165618000000D+06 0.400000000000D+01 0.000000000000D+00 0.000000000000D+00
13 24  4 16  0  0  0.0 0.643046107143D-03 0.306954461848D-11 0.000000000000D+00
    0.830000000000D+02-0.640937500000D+02 0.429375028050D-08-0.359073342035D+00
   -0.330060720444D-05 0.792833347805D-02 0.880286097527D-05 0.515365845108D+04
    0.172800000000D+06-0.428408384323D-07-0.127448576183D+01 0.113621354103D-06
    0.970957772014D+00 0.212125000000D+03 0.925020141590D+00-0.796961768085D-08
    0.535736601294D-10 0.100000000000D+01 0.231000000000D+04 0.000000000000D+00
    0.280000000000D+01 0.000000000000D+00-0.116415321827D-07 0.830000000000D+02
    0.168888000000D+06 0.400000000000D+01 0.000000000000D+00 0.000000000000D+00
15 24  4 16  0  0  0.0 0.148847233504D-03 0.409272615798D-11 0.000000000000D+00
    0.103000000000D+03-0.781875000000D+02 0.514985736937D-08-0.103214887182D+01
   -0.387057662010D-05 0.155185267795D-01 0.794418156147D-05 0.515363695145D+04
    0.172800000000D+06-0.121071934700D-06-0.156672322346D+01 0.368803739548D-06
    0.934673516675D+00 0.210906250000D+03 0.130140133325D+01-0.846678124685D-08
   -0.285726187357D-10 0.100000000000D+01 0.231000000000D+04 0.000000000000D+00
    0.200000000000D+01 0.000000000000D+00-0.107102096081D-07 0.103000000000D+03
    0.168522000000D+06 0.400000000000D+01 0.000000000000D+00 0.000000000000D+00
16 24  4 16  0  0  0.0-0.315758865327D-03 0.943600753089D-11 0.000000000000D+00
    0.160000000000D+02 0.243125000000D+02 0.457376194411D-08 0.857910945674D+00
    0.138767063618D-05 0.139582668198D-01 0.729225575924D-05 0.515375876999D+04
    0.172800000000D+06-0.197440385819D-06 0.765662108214D+00 0.633299350738D-07
    0.962368570354D+00 0.242156250000D+03 0.836888764599D+00-0.814962517889D-08
   -0.291440711104D-09 0.100000000000D+01 0.231000000000D+04 0.000000000000D+00
    0.200000000000D+01 0.000000000000D+00-0.102445483208D-07 0.160000000000D+02
    0.165618000000D+06 0.400000000000D+01 0.000000000000D+00 0.000000000000D+00
18 24  4 16  0  0  0.0-0.595133285970D-03-0.659383658785D-11 0.000000000000D+00
    0.128000000000D+03 0.465000000000D+02 0.426946355458D-08-0.207041776926D+01
    0.228360295296D-05 0.396638270467D-02 0.525452196598D-05 0.515361696434D+04
    0.172800000000D+06-0.558793544769D-08 0.279197871687D+01-0.124797224999D-06
    0.974751024967D+00 0.287937500000D+03-0.304194552634D+01-0.805604985253D-08
    0.149649090628D-09 0.100000000000D+01 0.231000000000D+04 0.000000000000D+00
    0.200000000000D+01 0.000000000000D+00-0.838190317154D-08 0.128000000000D+03
    0.165618000000D+06 0.400000000000D+01 0.000000000000D+00 0.000000000000D+00
19 24  4 16  0  0  0.0 0.468757469207D-03 0.534328137292D-11 0.000000000000D+00
    0.320000000000D+02 0.584687500000D+02 0.429232164957D-08 0.196012755164D+01
    0.292807817459D-05 0.971201772336D-02 0.692531466484D-05 0.515370233345D+04
    0.172800000000D+06 0.115483999252D-06 0.183156962580D+01 0.651925802231D-07
    0.968467648451D+00 0.248593750000D+03 0.251124566202D+01-0.784818405123D-08
   -0.223223583873D-09 0.100000000000D+01 0.231000000000D+04 0.000000000000D+00
    0.200000000000D+01 0.000000000000D+00-0.153668224812D-07 0.320000000000D+02
    0.170556000000D+06 0.400000000000D+01 0.000000000000D+00 0.000000000000D+00
20 24  4 16  0  0  0.0 0.380038283765D-03-0.136424205266D-11 0.000000000000D+00
    0.510000000000D+02-0.482187500000D+02 0.485413076546D-08-0.160283901794D+01
   -0.230222940445D-05 0.366437167395D-02 0.406801700592D-05 0.515376950264D+04
    0.172800000000D+06 0.335276126862D-07-0.263864241419D+01 0.298023223877D-07
    0.953375051783D+00 0.297437500000D+03-0.259456152524D+01-0.836106255753D-08
    0.642883921553D-10 0.100000000000D+01 0.231000000000D+04 0.000000000000D+00
    0.200000000000D+01 0.000000000000D+00-0.838190317154D-08 0.510000000000D+02
    0.165618000000D+06 0.400000000000D+01 0.000000000000D+00 0.000000000000D+00
